CCSDS_OMM_VERS = 2.0
CREATION_DATE  = 
ORIGINATOR     = 

OBJECT_NAME    = ZORKY-2M 7
OBJECT_ID      = 2025-313W
CENTER_NAME    = EARTH
REF_FRAME      = TEME
TIME_SYSTEM    = UTC
MEAN_ELEMENT_THEORY = SGP/SGP4

EPOCH          = 2026-01-20T01:24:55.027872
MEAN_MOTION    = 15.20238576
ECCENTRICITY   = .0016036
INCLINATION    = 97.4110
RA_OF_ASC_NODE = 97.1300
ARG_OF_PERICENTER = 159.5122
MEAN_ANOMALY   = 200.6760

EPHEMERIS_TYPE = 0
CLASSIFICATION_TYPE = U
NORAD_CAT_ID   = 67268
ELEMENT_SET_NO = 999
REV_AT_EPOCH   = 342
BSTAR          = .52854248E-3
MEAN_MOTION_DOT = .11442E-3
MEAN_MOTION_DDOT = 0

CCSDS_OMM_VERS = 2.0
CREATION_DATE  = 
ORIGINATOR     = 

OBJECT_NAME    = 2025-313X
OBJECT_ID      = 2025-313X
CENTER_NAME    = EARTH
REF_FRAME      = TEME
TIME_SYSTEM    = UTC
MEAN_ELEMENT_THEORY = SGP/SGP4

EPOCH          = 2026-01-20T04:32:00.925440
MEAN_MOTION    = 15.20489728
ECCENTRICITY   = .00159634
INCLINATION    = 97.4123
RA_OF_ASC_NODE = 97.2807
ARG_OF_PERICENTER = 157.9796
MEAN_ANOMALY   = 202.2128

EPHEMERIS_TYPE = 0
CLASSIFICATION_TYPE = U
NORAD_CAT_ID   = 67269
ELEMENT_SET_NO = 999
REV_AT_EPOCH   = 344
BSTAR          = .79038708E-3
MEAN_MOTION_DOT = .17283E-3
MEAN_MOTION_DDOT = 0

CCSDS_OMM_VERS = 2.0
CREATION_DATE  = 
ORIGINATOR     = 

OBJECT_NAME    = SITRO-TD-3
OBJECT_ID      = 2025-313Y
CENTER_NAME    = EARTH
REF_FRAME      = TEME
TIME_SYSTEM    = UTC
MEAN_ELEMENT_THEORY = SGP/SGP4

EPOCH          = 2026-01-20T06:09:16.605216
MEAN_MOTION    = 15.20291461
ECCENTRICITY   = .00159867
INCLINATION    = 97.4110
RA_OF_ASC_NODE = 97.3345
ARG_OF_PERICENTER = 158.8923
MEAN_ANOMALY   = 201.2975

EPHEMERIS_TYPE = 0
CLASSIFICATION_TYPE = U
NORAD_CAT_ID   = 67270
ELEMENT_SET_NO = 999
REV_AT_EPOCH   = 345
BSTAR          = .95702684E-3
MEAN_MOTION_DOT = .20831E-3
MEAN_MOTION_DDOT = 0

CCSDS_OMM_VERS = 2.0
CREATION_DATE  = 
ORIGINATOR     = 

OBJECT_NAME    = 2025-313Z
OBJECT_ID      = 2025-313Z
CENTER_NAME    = EARTH
REF_FRAME      = TEME
TIME_SYSTEM    = UTC
MEAN_ELEMENT_THEORY = SGP/SGP4

EPOCH          = 2026-01-20T03:01:38.089920
MEAN_MOTION    = 15.20067182
ECCENTRICITY   = .00160426
INCLINATION    = 97.4105
RA_OF_ASC_NODE = 97.1935
ARG_OF_PERICENTER = 155.5918
MEAN_ANOMALY   = 204.6081

EPHEMERIS_TYPE = 0
CLASSIFICATION_TYPE = U
NORAD_CAT_ID   = 67271
ELEMENT_SET_NO = 999
REV_AT_EPOCH   = 343
BSTAR          = .35699093E-3
MEAN_MOTION_DOT = .7663E-4
MEAN_MOTION_DDOT = 0

CCSDS_OMM_VERS = 2.0
CREATION_DATE  = 
ORIGINATOR     = 

OBJECT_NAME    = 2025-313AA
OBJECT_ID      = 2025-313AA
CENTER_NAME    = EARTH
REF_FRAME      = TEME
TIME_SYSTEM    = UTC
MEAN_ELEMENT_THEORY = SGP/SGP4

EPOCH          = 2026-01-20T01:21:47.132928
MEAN_MOTION    = 15.20471280
ECCENTRICITY   = .00157569
INCLINATION    = 97.4110
RA_OF_ASC_NODE = 97.1323
ARG_OF_PERICENTER = 159.9347
MEAN_ANOMALY   = 200.2511

EPHEMERIS_TYPE = 0
CLASSIFICATION_TYPE = U
NORAD_CAT_ID   = 67272
ELEMENT_SET_NO = 999
REV_AT_EPOCH   = 342
BSTAR          = .82467722E-3
MEAN_MOTION_DOT = .18027E-3
MEAN_MOTION_DDOT = 0

CCSDS_OMM_VERS = 2.0
CREATION_DATE  = 
ORIGINATOR     = 

OBJECT_NAME    = 2025-313AB
OBJECT_ID      = 2025-313AB
CENTER_NAME    = EARTH
REF_FRAME      = TEME
TIME_SYSTEM    = UTC
MEAN_ELEMENT_THEORY = SGP/SGP4

EPOCH          = 2026-01-20T01:26:45.278592
MEAN_MOTION    = 15.20034607
ECCENTRICITY   = .0015009
INCLINATION    = 97.4123
RA_OF_ASC_NODE = 97.1331
ARG_OF_PERICENTER = 163.9706
MEAN_ANOMALY   = 196.2007

EPHEMERIS_TYPE = 0
CLASSIFICATION_TYPE = U
NORAD_CAT_ID   = 67273
ELEMENT_SET_NO = 999
REV_AT_EPOCH   = 342
BSTAR          = .21960188E-3
MEAN_MOTION_DOT = .4679E-4
MEAN_MOTION_DDOT = 0

CCSDS_OMM_VERS = 2.0
CREATION_DATE  = 
ORIGINATOR     = 

OBJECT_NAME    = 2025-313AC
OBJECT_ID      = 2025-313AC
CENTER_NAME    = EARTH
REF_FRAME      = TEME
TIME_SYSTEM    = UTC
MEAN_ELEMENT_THEORY = SGP/SGP4

EPOCH          = 2026-01-20T01:24:17.318592
MEAN_MOTION    = 15.20235163
ECCENTRICITY   = .00157428
INCLINATION    = 97.4098
RA_OF_ASC_NODE = 97.1369
ARG_OF_PERICENTER = 159.0457
MEAN_ANOMALY   = 201.1426

EPHEMERIS_TYPE = 0
CLASSIFICATION_TYPE = U
NORAD_CAT_ID   = 67274
ELEMENT_SET_NO = 999
REV_AT_EPOCH   = 342
BSTAR          = .43592173E-3
MEAN_MOTION_DOT = .942E-4
MEAN_MOTION_DDOT = 0

CCSDS_OMM_VERS = 2.0
CREATION_DATE  = 
ORIGINATOR     = 

OBJECT_NAME    = 2025-313AD
OBJECT_ID      = 2025-313AD
CENTER_NAME    = EARTH
REF_FRAME      = TEME
TIME_SYSTEM    = UTC
MEAN_ELEMENT_THEORY = SGP/SGP4

EPOCH          = 2026-01-20T02:57:52.572096
MEAN_MOTION    = 15.20300483
ECCENTRICITY   = .00149477
INCLINATION    = 97.4073
RA_OF_ASC_NODE = 97.1957
ARG_OF_PERICENTER = 161.5592
MEAN_ANOMALY   = 198.6188

EPHEMERIS_TYPE = 0
CLASSIFICATION_TYPE = U
NORAD_CAT_ID   = 67275
ELEMENT_SET_NO = 999
REV_AT_EPOCH   = 343
BSTAR          = .45111367E-3
MEAN_MOTION_DOT = .9767E-4
MEAN_MOTION_DDOT = 0

CCSDS_OMM_VERS = 2.0
CREATION_DATE  = 
ORIGINATOR     = 

OBJECT_NAME    = 2025-313AE
OBJECT_ID      = 2025-313AE
CENTER_NAME    = EARTH
REF_FRAME      = TEME
TIME_SYSTEM    = UTC
MEAN_ELEMENT_THEORY = SGP/SGP4

EPOCH          = 2026-01-20T06:07:23.184480
MEAN_MOTION    = 15.20310556
ECCENTRICITY   = .00149083
INCLINATION    = 97.4077
RA_OF_ASC_NODE = 97.3259
ARG_OF_PERICENTER = 161.1780
MEAN_ANOMALY   = 199.0009

EPHEMERIS_TYPE = 0
CLASSIFICATION_TYPE = U
NORAD_CAT_ID   = 67276
ELEMENT_SET_NO = 999
REV_AT_EPOCH   = 345
BSTAR          = .62060042E-3
MEAN_MOTION_DOT = .13472E-3
MEAN_MOTION_DDOT = 0

CCSDS_OMM_VERS = 2.0
CREATION_DATE  = 
ORIGINATOR     = 

OBJECT_NAME    = 2025-313AF
OBJECT_ID      = 2025-313AF
CENTER_NAME    = EARTH
REF_FRAME      = TEME
TIME_SYSTEM    = UTC
MEAN_ELEMENT_THEORY = SGP/SGP4

EPOCH          = 2026-01-20T04:33:06.174720
MEAN_MOTION    = 15.20269075
ECCENTRICITY   = .00148729
INCLINATION    = 97.4079
RA_OF_ASC_NODE = 97.2620
ARG_OF_PERICENTER = 161.2841
MEAN_ANOMALY   = 198.8944

EPHEMERIS_TYPE = 0
CLASSIFICATION_TYPE = U
NORAD_CAT_ID   = 67277
ELEMENT_SET_NO = 999
REV_AT_EPOCH   = 344
BSTAR          = .39239084E-3
MEAN_MOTION_DOT = .8477E-4
MEAN_MOTION_DDOT = 0

CCSDS_OMM_VERS = 2.0
CREATION_DATE  = 
ORIGINATOR     = 

OBJECT_NAME    = 2025-313AG
OBJECT_ID      = 2025-313AG
CENTER_NAME    = EARTH
REF_FRAME      = TEME
TIME_SYSTEM    = UTC
MEAN_ELEMENT_THEORY = SGP/SGP4

EPOCH          = 2026-01-20T02:58:00.328224
MEAN_MOTION    = 15.20276661
ECCENTRICITY   = .00148547
INCLINATION    = 97.4083
RA_OF_ASC_NODE = 97.1981
ARG_OF_PERICENTER = 161.3215
MEAN_ANOMALY   = 198.8569

EPHEMERIS_TYPE = 0
CLASSIFICATION_TYPE = U
NORAD_CAT_ID   = 67278
ELEMENT_SET_NO = 999
REV_AT_EPOCH   = 344
BSTAR          = .42655638E-3
MEAN_MOTION_DOT = .9224E-4
MEAN_MOTION_DDOT = 0

CCSDS_OMM_VERS = 2.0
CREATION_DATE  = 
ORIGINATOR     = 

OBJECT_NAME    = GALAPAGOS-UTE-SWSU
OBJECT_ID      = 2025-313AH
CENTER_NAME    = EARTH
REF_FRAME      = TEME
TIME_SYSTEM    = UTC
MEAN_ELEMENT_THEORY = SGP/SGP4

EPOCH          = 2026-01-20T01:21:58.647456
MEAN_MOTION    = 15.20360724
ECCENTRICITY   = .00154207
INCLINATION    = 97.4094
RA_OF_ASC_NODE = 97.1377
ARG_OF_PERICENTER = 158.6621
MEAN_ANOMALY   = 201.5261

EPHEMERIS_TYPE = 0
CLASSIFICATION_TYPE = U
NORAD_CAT_ID   = 67279
ELEMENT_SET_NO = 999
REV_AT_EPOCH   = 342
BSTAR          = .49453168E-3
MEAN_MOTION_DOT = .10736E-3
MEAN_MOTION_DDOT = 0

