ZORKY-2M 7              
1 67268U 25313W   26020.05897023  .00011442  00000+0  52854-3 0  9995
2 67268  97.4110  97.1300 0016036 159.5122 200.6760 15.20238576  3423
2025-313X               
1 67269U 25313X   26020.18889960  .00017283  00000+0  79039-3 0  9994
2 67269  97.4123  97.2807 0015963 157.9796 202.2128 15.20489728  3443
SITRO-TD-3              
1 67270U 25313Y   26020.25644219  .00020831  00000+0  95703-3 0  9999
2 67270  97.4110  97.3345 0015986 158.8923 201.2975 15.20291461  3451
2025-313Z               
1 67271U 25313Z   26020.12613530  .00007663  00000+0  35699-3 0  9994
2 67271  97.4105  97.1935 0016042 155.5918 204.6081 15.20067182  3435
2025-313AA              
1 67272U 25313AA  26020.05679552  .00018027  00000+0  82468-3 0  9995
2 67272  97.4110  97.1323 0015756 159.9347 200.2511 15.20471280  3425
2025-313AB              
1 67273U 25313AB  26020.06024628  .00004679  00000+0  21960-3 0  9993
2 67273  97.4123  97.1331 0015009 163.9706 196.2007 15.20034607  3426
2025-313AC              
1 67274U 25313AC  26020.05853378  .00009420  00000+0  43592-3 0  9999
2 67274  97.4098  97.1369 0015742 159.0457 201.1426 15.20235163  3423
2025-313AD              
1 67275U 25313AD  26020.12352514  .00009767  00000+0  45111-3 0  9997
2 67275  97.4073  97.1957 0014947 161.5592 198.6188 15.20300483  3438
2025-313AE              
1 67276U 25313AE  26020.25512945  .00013472  00000+0  62060-3 0  9998
2 67276  97.4077  97.3259 0014908 161.1780 199.0009 15.20310556  3453
2025-313AF              
1 67277U 25313AF  26020.18965480  .00008477  00000+0  39239-3 0  9998
2 67277  97.4079  97.2620 0014872 161.2841 198.8944 15.20269075  3449
2025-313AG              
1 67278U 25313AG  26020.12361491  .00009224  00000+0  42656-3 0  9993
2 67278  97.4083  97.1981 0014854 161.3215 198.8569 15.20276661  3442
GALAPAGOS-UTE-SWSU      
1 67279U 25313AH  26020.05692879  .00010736  00000+0  49453-3 0  9995
2 67279  97.4094  97.1377 0015420 158.6621 201.5261 15.20360724  3427
